[{"OBJECT_NAME":"ONEWEB-0674","OBJECT_ID":"2023-029AP","EPOCH":"2025-11-21T23:42:40.773024","MEAN_MOTION":13.1450289,"ECCENTRICITY":0.0001939,"INCLINATION":87.8979,"RA_OF_ASC_NODE":331.0151,"ARG_OF_PERICENTER":105.5646,"MEAN_ANOMALY":254.5698,"EPHEMERIS_TYPE":0,"CLASSIFICATION_TYPE":"U","NORAD_CAT_ID":55833,"ELEMENT_SET_NO":999,"REV_AT_EPOCH":13219,"BSTAR":-9.9708e-5,"MEAN_MOTION_DOT":-2.4e-7,"MEAN_MOTION_DDOT":0},{"OBJECT_NAME":"ONEWEB-0675","OBJECT_ID":"2023-029AQ","EPOCH":"2025-11-21T23:59:54.287232","MEAN_MOTION":13.19726868,"ECCENTRICITY":0.0001768,"INCLINATION":87.9196,"RA_OF_ASC_NODE":346.2168,"ARG_OF_PERICENTER":84.3344,"MEAN_ANOMALY":275.799,"EPHEMERIS_TYPE":0,"CLASSIFICATION_TYPE":"U","NORAD_CAT_ID":55834,"ELEMENT_SET_NO":999,"REV_AT_EPOCH":13159,"BSTAR":9.8079e-6,"MEAN_MOTION_DOT":1.7e-7,"MEAN_MOTION_DDOT":0},{"OBJECT_NAME":"ONEWEB-0720","OBJECT_ID":"2023-029AR","EPOCH":"2025-11-22T01:37:41.994624","MEAN_MOTION":13.19728272,"ECCENTRICITY":0.000225,"INCLINATION":87.92,"RA_OF_ASC_NODE":346.2006,"ARG_OF_PERICENTER":93.5207,"MEAN_ANOMALY":266.6183,"EPHEMERIS_TYPE":0,"CLASSIFICATION_TYPE":"U","NORAD_CAT_ID":55835,"ELEMENT_SET_NO":999,"REV_AT_EPOCH":13152,"BSTAR":0.00033008,"MEAN_MOTION_DOT":1.45e-6,"MEAN_MOTION_DDOT":0},{"OBJECT_NAME":"ONEWEB-0537","OBJECT_ID":"2023-043A","EPOCH":"2025-11-22T09:45:53.186112","MEAN_MOTION":13.16593297,"ECCENTRICITY":0.0001759,"INCLINATION":87.903,"RA_OF_ASC_NODE":269.9477,"ARG_OF_PERICENTER":71.9929,"MEAN_ANOMALY":288.1394,"EPHEMERIS_TYPE":0,"CLASSIFICATION_TYPE":"U","NORAD_CAT_ID":56046,"ELEMENT_SET_NO":999,"REV_AT_EPOCH":13175,"BSTAR":0.0002479,"MEAN_MOTION_DOT":1.08e-6,"MEAN_MOTION_DDOT":0},{"OBJECT_NAME":"ONEWEB-0538","OBJECT_ID":"2023-043B","EPOCH":"2025-11-22T09:36:46.260288","MEAN_MOTION":13.16593172,"ECCENTRICITY":0.0002068,"INCLINATION":87.9027,"RA_OF_ASC_NODE":269.9542,"ARG_OF_PERICENTER":71.0473,"MEAN_ANOMALY":289.0882,"EPHEMERIS_TYPE":0,"CLASSIFICATION_TYPE":"U","NORAD_CAT_ID":56047,"ELEMENT_SET_NO":999,"REV_AT_EPOCH":13176,"BSTAR":9.2534e-5,"MEAN_MOTION_DOT":4.8e-7,"MEAN_MOTION_DDOT":0},{"OBJECT_NAME":"ONEWEB-0546","OBJECT_ID":"2023-043C","EPOCH":"2025-11-22T09:18:31.557600","MEAN_MOTION":13.16593916,"ECCENTRICITY":0.0001374,"INCLINATION":87.9036,"RA_OF_ASC_NODE":269.9462,"ARG_OF_PERICENTER":60.466,"MEAN_ANOMALY":299.6608,"EPHEMERIS_TYPE":0,"CLASSIFICATION_TYPE":"U","NORAD_CAT_ID":56048,"ELEMENT_SET_NO":999,"REV_AT_EPOCH":13175,"BSTAR":0.00045256,"MEAN_MOTION_DOT":1.86e-6,"MEAN_MOTION_DDOT":0},{"OBJECT_NAME":"ONEWEB-0547","OBJECT_ID":"2023-043D","EPOCH":"2025-11-22T08:53:39.790752","MEAN_MOTION":13.21823209,"ECCENTRICITY":0.000207,"INCLINATION":87.9198,"RA_OF_ASC_NODE":285.2254,"ARG_OF_PERICENTER":80.6761,"MEAN_ANOMALY":279.4607,"EPHEMERIS_TYPE":0,"CLASSIFICATION_TYPE":"U","NORAD_CAT_ID":56049,"ELEMENT_SET_NO":999,"REV_AT_EPOCH":13090,"BSTAR":0.00012732,"MEAN_MOTION_DOT":6.6e-7,"MEAN_MOTION_DDOT":0},{"OBJECT_NAME":"ONEWEB-0548","OBJECT_ID":"2023-043E","EPOCH":"2025-11-22T08:04:25.227840","MEAN_MOTION":13.16597661,"ECCENTRICITY":0.0001774,"INCLINATION":87.9019,"RA_OF_ASC_NODE":269.9662,"ARG_OF_PERICENTER":92.5898,"MEAN_ANOMALY":267.5436,"EPHEMERIS_TYPE":0,"CLASSIFICATION_TYPE":"U","NORAD_CAT_ID":56050,"ELEMENT_SET_NO":999,"REV_AT_EPOCH":13174,"BSTAR":0.00010158,"MEAN_MOTION_DOT":5.2e-7,"MEAN_MOTION_DDOT":0},{"OBJECT_NAME":"ONEWEB-0549","OBJECT_ID":"2023-043F","EPOCH":"2025-11-22T08:43:00.052320","MEAN_MOTION":13.21823594,"ECCENTRICITY":0.0002166,"INCLINATION":87.9194,"RA_OF_ASC_NODE":285.2416,"ARG_OF_PERICENTER":77.94,"MEAN_ANOMALY":282.1976,"EPHEMERIS_TYPE":0,"CLASSIFICATION_TYPE":"U","NORAD_CAT_ID":56051,"ELEMENT_SET_NO":999,"REV_AT_EPOCH":13090,"BSTAR":2.2077e-5,"MEAN_MOTION_DOT":2.2e-7,"MEAN_MOTION_DDOT":0},{"OBJECT_NAME":"ONEWEB-0550","OBJECT_ID":"2023-043G","EPOCH":"2025-11-22T08:24:02.624832","MEAN_MOTION":13.21823431,"ECCENTRICITY":0.0001813,"INCLINATION":87.9195,"RA_OF_ASC_NODE":285.2392,"ARG_OF_PERICENTER":86.8087,"MEAN_ANOMALY":273.3254,"EPHEMERIS_TYPE":0,"CLASSIFICATION_TYPE":"U","NORAD_CAT_ID":56052,"ELEMENT_SET_NO":999,"REV_AT_EPOCH":13090,"BSTAR":6.2185e-5,"MEAN_MOTION_DOT":3.9e-7,"MEAN_MOTION_DDOT":0},{"OBJECT_NAME":"ONEWEB-0551","OBJECT_ID":"2023-043H","EPOCH":"2025-11-22T08:31:42.830112","MEAN_MOTION":13.15547359,"ECCENTRICITY":0.0002117,"INCLINATION":87.8963,"RA_OF_ASC_NODE":300.5061,"ARG_OF_PERICENTER":82.4703,"MEAN_ANOMALY":277.6668,"EPHEMERIS_TYPE":0,"CLASSIFICATION_TYPE":"U","NORAD_CAT_ID":56053,"ELEMENT_SET_NO":999,"REV_AT_EPOCH":12920,"BSTAR":4.1036e-5,"MEAN_MOTION_DOT":2.8e-7,"MEAN_MOTION_DDOT":0},{"OBJECT_NAME":"ONEWEB-0552","OBJECT_ID":"2023-043J","EPOCH":"2025-11-22T08:16:57.158400","MEAN_MOTION":13.21824163,"ECCENTRICITY":0.0002138,"INCLINATION":87.9195,"RA_OF_ASC_NODE":285.2488,"ARG_OF_PERICENTER":84.5555,"MEAN_ANOMALY":275.5823,"EPHEMERIS_TYPE":0,"CLASSIFICATION_TYPE":"U","NORAD_CAT_ID":56054,"ELEMENT_SET_NO":999,"REV_AT_EPOCH":13090,"BSTAR":0.00020405,"MEAN_MOTION_DOT":9.7e-7,"MEAN_MOTION_DDOT":0},{"OBJECT_NAME":"ONEWEB-0553","OBJECT_ID":"2023-043K","EPOCH":"2025-11-22T09:27:38.474784","MEAN_MOTION":13.16593332,"ECCENTRICITY":0.0001506,"INCLINATION":87.9029,"RA_OF_ASC_NODE":269.9541,"ARG_OF_PERICENTER":73.9603,"MEAN_ANOMALY":286.1693,"EPHEMERIS_TYPE":0,"CLASSIFICATION_TYPE":"U","NORAD_CAT_ID":56055,"ELEMENT_SET_NO":999,"REV_AT_EPOCH":13176,"BSTAR":0.00028403,"MEAN_MOTION_DOT":1.21e-6,"MEAN_MOTION_DDOT":0},{"OBJECT_NAME":"ONEWEB-0554","OBJECT_ID":"2023-043L","EPOCH":"2025-11-22T09:09:25.278048","MEAN_MOTION":13.16594443,"ECCENTRICITY":0.0001719,"INCLINATION":87.9014,"RA_OF_ASC_NODE":269.9733,"ARG_OF_PERICENTER":86.4853,"MEAN_ANOMALY":273.6474,"EPHEMERIS_TYPE":0,"CLASSIFICATION_TYPE":"U","NORAD_CAT_ID":56056,"ELEMENT_SET_NO":999,"REV_AT_EPOCH":13174,"BSTAR":0.00028266,"MEAN_MOTION_DOT":1.21e-6,"MEAN_MOTION_DDOT":0},{"OBJECT_NAME":"ONEWEB-0555","OBJECT_ID":"2023-043M","EPOCH":"2025-11-22T08:14:41.267616","MEAN_MOTION":13.16592666,"ECCENTRICITY":0.0001411,"INCLINATION":87.9027,"RA_OF_ASC_NODE":269.9591,"ARG_OF_PERICENTER":68.8723,"MEAN_ANOMALY":291.2559,"EPHEMERIS_TYPE":0,"CLASSIFICATION_TYPE":"U","NORAD_CAT_ID":56057,"ELEMENT_SET_NO":999,"REV_AT_EPOCH":13174,"BSTAR":0.00016713,"MEAN_MOTION_DOT":7.7e-7,"MEAN_MOTION_DDOT":0},{"OBJECT_NAME":"ONEWEB-0557","OBJECT_ID":"2023-043N","EPOCH":"2025-11-22T08:35:13.233120","MEAN_MOTION":13.16592158,"ECCENTRICITY":0.0001068,"INCLINATION":87.9021,"RA_OF_ASC_NODE":269.9698,"ARG_OF_PERICENTER":118.2548,"MEAN_ANOMALY":241.8691,"EPHEMERIS_TYPE":0,"CLASSIFICATION_TYPE":"U","NORAD_CAT_ID":56058,"ELEMENT_SET_NO":999,"REV_AT_EPOCH":13174,"BSTAR":0.0011915,"MEAN_MOTION_DOT":4.68e-6,"MEAN_MOTION_DDOT":0},{"OBJECT_NAME":"ONEWEB-0558","OBJECT_ID":"2023-043P","EPOCH":"2025-11-22T08:07:27.778944","MEAN_MOTION":13.2182565,"ECCENTRICITY":0.0002361,"INCLINATION":87.9189,"RA_OF_ASC_NODE":285.2442,"ARG_OF_PERICENTER":74.581,"MEAN_ANOMALY":285.5585,"EPHEMERIS_TYPE":0,"CLASSIFICATION_TYPE":"U","NORAD_CAT_ID":56059,"ELEMENT_SET_NO":999,"REV_AT_EPOCH":13091,"BSTAR":-4.1413e-6,"MEAN_MOTION_DOT":1.1e-7,"MEAN_MOTION_DDOT":0},{"OBJECT_NAME":"ONEWEB-0559","OBJECT_ID":"2023-043Q","EPOCH":"2025-11-22T09:39:54.047232","MEAN_MOTION":13.21825956,"ECCENTRICITY":0.0002192,"INCLINATION":87.9189,"RA_OF_ASC_NODE":285.2246,"ARG_OF_PERICENTER":83.1495,"MEAN_ANOMALY":276.9888,"EPHEMERIS_TYPE":0,"CLASSIFICATION_TYPE":"U","NORAD_CAT_ID":56060,"ELEMENT_SET_NO":999,"REV_AT_EPOCH":13093,"BSTAR":0.00021388,"MEAN_MOTION_DOT":1.01e-6,"MEAN_MOTION_DDOT":0},{"OBJECT_NAME":"ONEWEB-0566","OBJECT_ID":"2023-043R","EPOCH":"2025-11-22T09:30:23.707872","MEAN_MOTION":13.21829382,"ECCENTRICITY":0.0002247,"INCLINATION":87.9188,"RA_OF_ASC_NODE":285.2237,"ARG_OF_PERICENTER":78.7436,"MEAN_ANOMALY":281.395,"EPHEMERIS_TYPE":0,"CLASSIFICATION_TYPE":"U","NORAD_CAT_ID":56061,"ELEMENT_SET_NO":999,"REV_AT_EPOCH":13091,"BSTAR":0.00031197,"MEAN_MOTION_DOT":1.42e-6,"MEAN_MOTION_DDOT":0},{"OBJECT_NAME":"ONEWEB-0568","OBJECT_ID":"2023-043S","EPOCH":"2025-11-22T09:00:17.229888","MEAN_MOTION":13.16593167,"ECCENTRICITY":0.0001605,"INCLINATION":87.9029,"RA_OF_ASC_NODE":269.9526,"ARG_OF_PERICENTER":73.4035,"MEAN_ANOMALY":286.7272,"EPHEMERIS_TYPE":0,"CLASSIFICATION_TYPE":"U","NORAD_CAT_ID":56062,"ELEMENT_SET_NO":999,"REV_AT_EPOCH":13176,"BSTAR":0.00038825,"MEAN_MOTION_DOT":1.61e-6,"MEAN_MOTION_DDOT":0},{"OBJECT_NAME":"ONEWEB-0574","OBJECT_ID":"2023-043T","EPOCH":"2025-11-22T09:20:54.998016","MEAN_MOTION":13.21823659,"ECCENTRICITY":0.0001812,"INCLINATION":87.9192,"RA_OF_ASC_NODE":285.213,"ARG_OF_PERICENTER":87.2098,"MEAN_ANOMALY":272.9243,"EPHEMERIS_TYPE":0,"CLASSIFICATION_TYPE":"U","NORAD_CAT_ID":56063,"ELEMENT_SET_NO":999,"REV_AT_EPOCH":13095,"BSTAR":0.00031001,"MEAN_MOTION_DOT":1.41e-6,"MEAN_MOTION_DDOT":0},{"OBJECT_NAME":"ONEWEB-0575","OBJECT_ID":"2023-043U","EPOCH":"2025-11-22T08:51:10.522656","MEAN_MOTION":13.16592954,"ECCENTRICITY":0.0001548,"INCLINATION":87.9021,"RA_OF_ASC_NODE":269.9551,"ARG_OF_PERICENTER":85.5423,"MEAN_ANOMALY":274.5884,"EPHEMERIS_TYPE":0,"CLASSIFICATION_TYPE":"U","NORAD_CAT_ID":56064,"ELEMENT_SET_NO":999,"REV_AT_EPOCH":13175,"BSTAR":0.00039569,"MEAN_MOTION_DOT":1.64e-6,"MEAN_MOTION_DDOT":0},{"OBJECT_NAME":"ONEWEB-0576","OBJECT_ID":"2023-043V","EPOCH":"2025-11-22T08:23:49.333056","MEAN_MOTION":13.16594641,"ECCENTRICITY":0.0001651,"INCLINATION":87.9026,"RA_OF_ASC_NODE":269.9587,"ARG_OF_PERICENTER":77.3117,"MEAN_ANOMALY":282.8199,"EPHEMERIS_TYPE":0,"CLASSIFICATION_TYPE":"U","NORAD_CAT_ID":56065,"ELEMENT_SET_NO":999,"REV_AT_EPOCH":13174,"BSTAR":0.00030934,"MEAN_MOTION_DOT":1.31e-6,"MEAN_MOTION_DDOT":0},{"OBJECT_NAME":"ONEWEB-0577","OBJECT_ID":"2023-043W","EPOCH":"2025-11-22T08:32:54.682080","MEAN_MOTION":13.16623713,"ECCENTRICITY":0.0001573,"INCLINATION":87.9025,"RA_OF_ASC_NODE":269.9567,"ARG_OF_PERICENTER":117.7846,"MEAN_ANOMALY":242.3444,"EPHEMERIS_TYPE":0,"CLASSIFICATION_TYPE":"U","NORAD_CAT_ID":56066,"ELEMENT_SET_NO":999,"REV_AT_EPOCH":13177,"BSTAR":-0.015868,"MEAN_MOTION_DOT":-6.052e-5,"MEAN_MOTION_DDOT":0}]
